COSMOS 2433 (720)       
1 32275U 07052A   22120.86315822 -.00000079  00000+0  00000+0 0  9990
2 32275  66.0831   6.2494 0001745 297.4218 173.6474  2.13104086112955
COSMOS 2432 (719)       
1 32276U 07052B   22120.92815718 -.00000079  00000+0  00000+0 0  9997
2 32276  66.0970   6.3471 0010998 337.4411 131.9487  2.13103465112957
COSMOS 2434 (721)       
1 32393U 07065A   22121.07407321 -.00000014  00000+0  00000+0 0  9994
2 32393  64.3921 243.0429 0003622  86.3894  75.8779  2.13103005111665
COSMOS 2436 (723)       
1 32395U 07065C   22121.19500250 -.00000013  00000+0  00000+0 0  9993
2 32395  64.4028 243.0941 0015577   4.8460  26.1050  2.13102979111605
COSMOS 2456 (730)       
1 36111U 09070A   22120.84004225  .00000051  00000+0  00000+0 0  9994
2 36111  64.3411 122.6892 0006296 301.7176 207.2397  2.13099125 96323
COSMOS 2457 (733)       
1 36112U 09070B   22121.11688403  .00000048  00000+0  00000+0 0  9998
2 36112  64.3243 122.5566 0004283 199.3907 288.8662  2.13101395 96335
COSMOS 2461 (735)       
1 36401U 10007B   22121.15924230 -.00000078  00000+0  00000+0 0  9990
2 36401  65.9696   5.0833 0022068   8.5258 187.1668  2.13103781 94682
COSMOS 2460 (732)       
1 36402U 10007C   22121.13666876 -.00000078  00000+0  00000+0 0  9998
2 36402  65.9566   5.0362 0002174  27.7930  98.5497  2.13106372 94686
COSMOS 2464 (736)       
1 37139U 10041C   22121.11654454 -.00000014  00000+0  00000+0 0  9991
2 37139  63.9928 242.1391 0029337  12.9579  40.4787  2.13100745 90744
COSMOS 2476 (744)       
1 37867U 11064A   22121.19757425  .00000050  00000+0  00000+0 0  9994
2 37867  64.6306 124.0144 0023200 241.3909  86.9636  2.13101850 81670
COSMOS 2477 (745)       
1 37868U 11064B   22121.12043432  .00000051  00000+0  00000+0 0  9995
2 37868  64.6386 124.0817 0020622 242.7494 204.5626  2.13101698 81638
COSMOS 2475 (743)       
1 37869U 11064C   22121.13074066  .00000051  00000+0  00000+0 0  9994
2 37869  64.6462 124.0888 0025219 258.6947 154.4814  2.13101909 81646
COSMOS 2485 (747)       
1 39155U 13019A   22120.91378657  .00000054  00000+0  00000+0 0  9997
2 39155  64.7953 124.4419 0023593 237.5927 277.4396  2.13101819 70147
COSMOS 2492 (754)       
1 39620U 14012A   22121.09297091 -.00000078  00000+0  00000+0 0  9997
2 39620  65.8428   4.7255 0014026 330.8843 356.1434  2.13103203 63099
COSMOS 2500 (755)       
1 40001U 14032A   22120.99573803 -.00000078  00000+0  00000+0 0  9990
2 40001  65.7820   4.5932 0004199 201.3038 269.9252  2.13102481 61316
COSMOS 2501 (702K)      
1 40315U 14075A   22121.11775600 -.00000014  00000+0  00000+0 0  9999
2 40315  63.6999 242.8257 0017310 206.4469 166.1388  2.13101460 57722
COSMOS 2514 (751)       
1 41330U 16008A   22121.08051612 -.00000079  00000+0  00000+0 0  9992
2 41330  65.5823   4.2938 0007792 209.9260 150.0835  2.13102890 48483
COSMOS 2516 (753)       
1 41554U 16032A   22120.78811240 -.00000018  00000+0  00000+0 0  9997
2 41554  63.9274 243.0992 0013327 212.7208 184.7233  2.13106144 46087
COSMOS 2522 (752)       
1 42939U 17055A   22121.14627800 -.00000014  00000+0  00000+0 0  9995
2 42939  64.1604 243.4698 0006300 238.5930 291.2269  2.13101857 35844
COSMOS 2527 (756)       
1 43508U 18053A   22121.11197181  .00000052  00000+0  00000+0 0  9999
2 43508  64.9582 124.4255 0009779 242.3987 293.2182  2.13102590 30133
COSMOS 2529 (757)       
1 43687U 18086A   22121.16666109 -.00000014  00000+0  00000+0 0  9998
2 43687  64.3752 243.7711 0008011 269.2357 231.7397  2.13102089 27159
COSMOS 2534 (758)       
1 44299U 19030A   22121.04231718 -.00000015  00000+0  00000+0 0  9990
2 44299  64.4471 243.6566 0011069 290.5872 249.5960  2.13101997 22796
COSMOS 2544 (759)       
1 44850U 19088A   22121.04036081  .00000052  00000+0  00000+0 0  9992
2 44850  64.9435 124.2813 0014708 263.8265 260.3578  2.13102362 18568
COSMOS 2545 (760)       
1 45358U 20018A   22121.15503014 -.00000081  00000+0  00000+0 0  9991
2 45358  64.9204   4.9392 0007571 259.4573 202.2340  2.13102677 16520
COSMOS 2547 (705K)      
1 46805U 20075A   22121.25710800 -.00000012  00000+0  00000+0 0  9990
2 46805  64.6709 243.0594 0006133 243.5462 148.9395  2.13103137 11779
